<?xml version="1.0" encoding="utf-8" ?>
<kml xmlns="http://www.opengis.net/kml/2.2">
<Document id="root_doc">
<Schema name="propuesta_v1" id="propuesta_v1">
	<SimpleField name="fid" type="float"></SimpleField>
	<SimpleField name="id" type="float"></SimpleField>
	<SimpleField name="observaciones" type="string"></SimpleField>
	<SimpleField name="tipo" type="string"></SimpleField>
	<SimpleField name="vegetacion" type="string"></SimpleField>
</Schema>
<Folder><name>propuesta_v1</name>
  <Placemark>
	<Style><LineStyle><color>ff0000ff</color></LineStyle><PolyStyle><fill>0</fill></PolyStyle></Style>
	<ExtendedData><SchemaData schemaUrl="#propuesta_v1">
		<SimpleData name="fid">1</SimpleData>
		<SimpleData name="id">1</SimpleData>
		<SimpleData name="observaciones">Si el fuego llega a este punto en condiciones de viento sur se produce alineación de factores (Campbell) y cambiaría el comportamiento del incendio a más virulento. Se propne reducir la carga de combustible mediante desbroces y apeos y mantener la FCC en pies superiores a 4 metros. </SimpleData>
		<SimpleData name="tipo">Punto crítico, cabecera de barranco</SimpleData>
		<SimpleData name="vegetacion">Pino carrasco y matorral mediteráneo</SimpleData>
	</SchemaData></ExtendedData>
      <MultiGeometry><Polygon><outerBoundaryIs><LinearRing><coordinates>-1.25865461206471,42.5897387927838 -1.25861119330129,42.5897859961886 -1.25855683902989,42.5898202735451 -1.25844149984444,42.5898972219354 -1.25823236296591,42.5900035916458 -1.25810109816349,42.5900425691742 -1.2579393215553,42.5900616807528 -1.25772364763013,42.5900730818181 -1.25757947385784,42.5900764354178 -1.25746488904369,42.5900723291232 -1.25750973306654,42.5902376227781 -1.25751803115117,42.5903782744745 -1.25752121627456,42.5904822955754 -1.25751132479004,42.5905553036328 -1.25747494565173,42.5906346819369 -1.25742968169553,42.5907014035666 -1.25733756122142,42.5907787702138 -1.25718617817377,42.5908677055645 -1.25707100662639,42.5909390372411 -1.25698114926625,42.5909935212914 -1.25692213814987,42.5910497655414 -1.25688014313608,42.5911085243625 -1.25687100686109,42.5911586489847 -1.25690294275225,42.5912311532896 -1.25702180149909,42.5913542013118 -1.25705782993675,42.5913859719682 -1.25627699943925,42.5917311837667 -1.25456959371009,42.5927836447784 -1.2545997924566,42.5927251333808 -1.25462920791356,42.5926681942472 -1.25464997052097,42.5926575357124 -1.25468659838467,42.5926338502419 -1.25473319701172,42.5925878937302 -1.25476071949223,42.5925576504522 -1.25479618336954,42.5925105973813 -1.25485660848085,42.5924149556325 -1.25489983061676,42.5923149137912 -1.25489984129287,42.5923148833596 -1.25493645807232,42.5922074402889 -1.25494602742679,42.5921352576355 -1.25495372492258,42.5921154581653 -1.25493874332076,42.5920673711398 -1.254918724557,42.5920318024211 -1.25489986164238,42.5920058570837 -1.2548854285969,42.5919859713755 -1.25488539133765,42.5919859519254 -1.25484420351355,42.5919537056896 -1.2549537101257,42.5919551413361 -1.25503422328766,42.5919472724794 -1.25515903182088,42.5919116211657 -1.25541303498351,42.5917995730722 -1.25557436826326,42.5917295505167 -1.25566068425144,42.5916920918622 -1.25581040519463,42.5916251178496 -1.25588500749009,42.5915975397101 -1.25590917000376,42.5915885828078 -1.25594510049846,42.5915752634451 -1.25597021885623,42.5915659643641 -1.25597025990022,42.5915659471937 -1.25614653210471,42.5914954447706 -1.25625012554778,42.5914554692647 -1.25632967686146,42.5914046678457 -1.25639070594334,42.5913484583048 -1.25642701513255,42.5912916824819 -1.25653773063644,42.5911186681424 -1.25660530568251,42.591025084054 -1.25662333511091,42.5910001353414 -1.25669826444722,42.5909155952857 -1.25682491503637,42.5908098504402 -1.25687494803218,42.5907562254075 -1.2568859856989,42.5907349065535 -1.25689331785955,42.5907207830286 -1.25690765184261,42.5906756864588 -1.25690814939657,42.5906587548069 -1.2569050365297,42.5906385534406 -1.25690378345719,42.5905982231705 -1.25691300394223,42.5905571889638 -1.2569130144031,42.5905571528532 -1.2569239617123,42.5905221100918 -1.25695214871778,42.590470396625 -1.25697103563885,42.5904423728575 -1.25698579712133,42.590420541698 -1.25687000354722,42.5903881684736 -1.25686039545612,42.5903968163215 -1.25685573411879,42.5904009946484 -1.25685236886026,42.5904029632552 -1.25684955086407,42.590404597843 -1.25683212856662,42.5904050781461 -1.25681607580065,42.5904054888625 -1.25679321443419,42.590391255906 -1.25671516698538,42.5904187509326 -1.25674578706078,42.5904729458707 -1.25667830270473,42.5904287394019 -1.2565705918898,42.5904018334911 -1.25650412087912,42.5903962176157 -1.25647754940627,42.5904563175414 -1.25644209227736,42.5905574896333 -1.25640579695808,42.5906356944709 -1.25633530179547,42.5907157433273 -1.25622281245726,42.5907995648786 -1.25610457313311,42.5908578442549 -1.25604377258197,42.5909028029767 -1.25599926960091,42.5909357104636 -1.25591266693397,42.590984348136 -1.2557936221089,42.5910368347786 -1.25576305059331,42.5910445258674 -1.25569593185983,42.5910614113584 -1.25544314957071,42.5911661616849 -1.2553211048623,42.5912207739783 -1.25520439104462,42.5912950166901 -1.25501864303014,42.5914203345318 -1.25493473514523,42.5914777002806 -1.25480896300427,42.5915604916959 -1.25478981873629,42.591614499654 -1.25486615357122,42.5917231769024 -1.25492757113217,42.5917871006526 -1.25500703457634,42.5918937734608 -1.25500268293022,42.5918940883845 -1.25499544728611,42.5918938908498 -1.25499007750243,42.5918937335547 -1.2549798130232,42.5918934326444 -1.25496870280988,42.5918898594388 -1.25496161448023,42.5918875793455 -1.25495348746322,42.5918849410321 -1.25493112514235,42.591878210656 -1.25490881578452,42.5918714720568 -1.25472030006542,42.5917933518764 -1.25460085458537,42.5917431442733 -1.25449565834151,42.5916889125184 -1.25446397516087,42.5916698859492 -1.25443480320632,42.5916523674184 -1.25439968219174,42.5916370285347 -1.25402275345788,42.5916615976307 -1.25391670182958,42.5916741787249 -1.25383162046338,42.5916891681665 -1.25378635650715,42.5916984729178 -1.25376167565711,42.5917005130294 -1.25374477687782,42.5917018970315 -1.25372594508095,42.5917028490575 -1.25368090880622,42.5917050954598 -1.25343543807545,42.5917232080194 -1.2534353959221,42.5917232114652 -1.25342056352195,42.5917244665551 -1.25319162033773,42.5913445899325 -1.25625174985723,42.5882992243898 -1.2568269809895,42.5882932424288 -1.25682081850337,42.5883136486915 -1.25679909850949,42.5883854408345 -1.25679526885983,42.5884046318331 -1.25679185454948,42.5884215565988 -1.25679345934716,42.5884892998218 -1.25686498194874,42.5884692615476 -1.25686446657283,42.588437322733 -1.2569903735443,42.5884412497164 -1.25706084415837,42.5885140287505 -1.25709155722242,42.5885548560578 -1.25714117489477,42.5886208910232 -1.25717679882356,42.5886889537574 -1.25717780928777,42.5887238712937 -1.25717903778569,42.5887671673747 -1.25716560771186,42.5888100147988 -1.25714787957953,42.5888664858299 -1.25710891525754,42.589007538414 -1.2570945298649,42.5891109587657 -1.25710117023663,42.5891774925054 -1.257111856003,42.5891815184074 -1.25715080551114,42.5892003649583 -1.25724653045074,42.5892641356466 -1.25724657559819,42.5892641658152 -1.25735525290551,42.5893385630266 -1.25743069255309,42.5893876818203 -1.25748559569853,42.5894294237005 -1.25752263452776,42.5894669813064 -1.25752265921211,42.5894670066292 -1.25758618559349,42.5895376233042 -1.25764167177402,42.5895968128314 -1.25765340643917,42.5896105591535 -1.25767008977306,42.5896275003626 -1.25773498706453,42.5896619503973 -1.25776472231088,42.58967074206 -1.25777897387694,42.5896729449148 -1.25779130247693,42.5896748763796 -1.25780445122468,42.5896754427398 -1.25781359048564,42.5896758550212 -1.25783964592477,42.5896676416636 -1.25790911443566,42.5896435104413 -1.25790914757695,42.5896434992562 -1.25797547095973,42.5896211970217 -1.25803746578341,42.5896062065544 -1.25806102903905,42.5895989297457 -1.25807122515532,42.5895949493814 -1.25808089861382,42.5895911944414 -1.25811687675155,42.5895697295133 -1.2581285108115,42.5895556044552 -1.25813494412475,42.5895477956708 -1.25813496048127,42.5895477729862 -1.25816731897511,42.5895020754465 -1.25821644332647,42.5894445089403 -1.25821646656768,42.5894444828503 -1.25829533412918,42.5893803919854 -1.25840351278591,42.5892841576993 -1.25850428533205,42.5891897741781 -1.25856511840249,42.5891343072184 -1.25856514260345,42.5891342871155 -1.25862033207844,42.5890889754639 -1.25861832867522,42.5891165942917 -1.25859314608383,42.5891411298002 -1.25854290662961,42.5891856737508 -1.25853908867248,42.5892128001057 -1.25848891208256,42.589255079266 -1.25845041316081,42.5893179242651 -1.25842589525435,42.5894285553353 -1.25841278344245,42.589443990611 -1.25840914569626,42.5894624433719 -1.2583708387201,42.5895555688362 -1.25832255727856,42.5896175965998 -1.25826052867683,42.5896714939167 -1.2581705497791,42.589715802336 -1.25817842206305,42.5897374133982 -1.25822042545873,42.5897550790983 -1.2581829935533,42.5897712402468 -1.2581914151855,42.5898073934493 -1.25819146412606,42.5898073729221 -1.25830443848887,42.589756078806 -1.25834417871725,42.5897315350785 -1.25839083110198,42.5897038835532 -1.25839087474179,42.5897038492527 -1.25844233887297,42.5896585002897 -1.25850048753525,42.5896123162923 -1.25854131287548,42.5895799081514 -1.25854134220577,42.5895798814863 -1.25860873050787,42.5895200987655 -1.25865346671339,42.5894850149558 -1.25873118981679,42.589710322729 -1.25866515015746,42.5897519693896 -1.25865461206471,42.5897387927838</coordinates></LinearRing></outerBoundaryIs></Polygon><Polygon><outerBoundaryIs><LinearRing><coordinates>-1.25419724868756,42.5930131535371 -1.25345180115144,42.5917762975692 -1.25358812699992,42.591766271622 -1.25368711141493,42.5917589919386 -1.25375130807575,42.5917557126519 -1.25383799429957,42.5917463422701 -1.25381908945592,42.5917545258256 -1.25378912253539,42.5917674568232 -1.25375291103512,42.5917971296003 -1.25372022077263,42.5918336755386 -1.25370789529928,42.5918550222877 -1.25370394222364,42.5918618373956 -1.25370978455181,42.5918738393983 -1.25372365185892,42.5918827169999 -1.25373472146599,42.5918898359695 -1.25377303544439,42.5918926959856 -1.25381502468029,42.591897031238 -1.25389213948425,42.591907437129 -1.25394072961683,42.591922390886 -1.25398609173514,42.5919363793744 -1.25407050744004,42.5919725169198 -1.25410386893665,42.5919968637878 -1.25413605274275,42.5920188979582 -1.25419005371067,42.5920774176908 -1.25419007732749,42.5920774426125 -1.25425531540987,42.5921338831744 -1.25425534697826,42.5921339144087 -1.25429924278577,42.5921780776831 -1.25434511357859,42.5922190971323 -1.25439128075573,42.5922711074182 -1.25439129546871,42.5922711328061 -1.25441242017074,42.5923099411725 -1.25442470015938,42.5923360398134 -1.25444449081023,42.592378181535 -1.25447032765078,42.592447730037 -1.25448928390379,42.5925185701076 -1.25449813918151,42.5925540767614 -1.25450644982191,42.5925874921128 -1.25454141833476,42.5926411566995 -1.25456166684927,42.5926689496595 -1.25447852540127,42.5928397784034 -1.25419724868756,42.5930131535371</coordinates></LinearRing></outerBoundaryIs></Polygon></MultiGeometry>
  </Placemark>
  <Placemark>
	<Style><LineStyle><color>ff0000ff</color></LineStyle><PolyStyle><fill>0</fill></PolyStyle></Style>
	<ExtendedData><SchemaData schemaUrl="#propuesta_v1">
		<SimpleData name="fid">2</SimpleData>
		<SimpleData name="id">2</SimpleData>
		<SimpleData name="observaciones">El fuego cuando llegue a esta zona cambiará de comportamiento tanto en incendios con condiciones de viento norte como incendios con condiciones de viento sur. Deja de haber alineación de factores (Campbell) y puede constituir una zona actuación para los equipos de extinción. Se propone la ejecución de una faja perimetral de 60 metros de ancho con reducción de FCC y reducción de carga de combustible con un desbrocce inicial y un mantenimiento posterior usando pastoreo.</SimpleData>
		<SimpleData name="tipo">Punto de oportunidad</SimpleData>
		<SimpleData name="vegetacion">Ladera sur pino carrasco y matorral mediteráneo. Ladera norte pino laricio</SimpleData>
	</SchemaData></ExtendedData>
      <MultiGeometry><Polygon><outerBoundaryIs><LinearRing><coordinates>-1.24664564503727,42.5932820715881 -1.24892731846551,42.5947289241797 -1.25031208635982,42.5958135151511 -1.25140348889342,42.5964691330367 -1.25310345208233,42.5970982778757 -1.25494361239054,42.5976893197916 -1.25612891709928,42.5979084405315 -1.25616338574502,42.5981904613297 -1.25607476522625,42.5983320941949 -1.25545023066752,42.598389606634 -1.25445356993995,42.5981286719428 -1.25205394468303,42.5974307856993 -1.24978127793439,42.5965203160957 -1.24856709486055,42.5958225917328 -1.24757456307544,42.5949852637162 -1.24620220184607,42.5938918932505 -1.24395939972525,42.5923562185005 -1.24413021008535,42.5922448515898 -1.24418923562135,42.5923286305496 -1.24421035171901,42.592350098846 -1.24423331428479,42.5923674439658 -1.2442708570635,42.5923829429517 -1.24427851770722,42.5923861062862 -1.24427855562459,42.59238612102 -1.24432067823143,42.5923951958435 -1.24438878282939,42.5923987251933 -1.2444742024004,42.5923971870537 -1.24447424056854,42.5923971816823 -1.24451812760012,42.5923902330061 -1.24455712312029,42.5923897075649 -1.24458622481069,42.5923960836729 -1.24461723126888,42.5924097308933 -1.24463643409006,42.5924243306882 -1.24465137743953,42.5924416931215 -1.24466570217669,42.5924686643754 -1.24468160520574,42.5925115039524 -1.24470254119087,42.592567908824 -1.24471813114549,42.5926012874969 -1.2447330628962,42.5926259660775 -1.24473309007233,42.5926259976958 -1.24474984445655,42.5926447013083 -1.24478270625486,42.5926684130731 -1.24478273195812,42.5926684308527 -1.24484597309048,42.5926994326537 -1.24489618347923,42.5927213024987 -1.2449953172784,42.5927508545111 -1.24521209029616,42.592786135729 -1.24521211871515,42.592786096688 -1.2452805205229,42.5926903739872 -1.24531497633597,42.5926306079464 -1.24535004542676,42.5925698598401 -1.24538081651073,42.5925083732598 -1.24664564503727,42.5932820715881</coordinates></LinearRing></outerBoundaryIs></Polygon></MultiGeometry>
  </Placemark>
  <Placemark>
	<Style><LineStyle><color>ff0000ff</color></LineStyle><PolyStyle><fill>0</fill></PolyStyle></Style>
	<ExtendedData><SchemaData schemaUrl="#propuesta_v1">
		<SimpleData name="fid">3</SimpleData>
		<SimpleData name="id">3</SimpleData>
		<SimpleData name="observaciones">Con el objetivo de mejorar la defensa de bienes y personas. Se propone una reducción de la continuidad vertical mediante desbroce y poda y reducción de FCC mediante apeos en aquellas zonas que se encuentren a menos de 10 metros de edificaciones</SimpleData>
		<SimpleData name="tipo">Defensivo</SimpleData>
		<SimpleData name="vegetacion">Pino carraso</SimpleData>
	</SchemaData></ExtendedData>
      <MultiGeometry><Polygon><outerBoundaryIs><LinearRing><coordinates>-1.28090460645783,42.5820410519026 -1.2807986269746,42.5819389713717 -1.28080894782777,42.581925847094 -1.28081001972513,42.5819244840395 -1.28081029565294,42.5819136640704 -1.28081059211107,42.5819026099907 -1.28081159793952,42.5818627121292 -1.2808162196957,42.5817574331666 -1.28081621983801,42.5817573909532 -1.28078679548335,42.581632272263 -1.28077286876067,42.5815731121052 -1.28077286191972,42.5815730835183 -1.28074965567139,42.581487195301 -1.28074897507577,42.5814472826144 -1.28074807459943,42.5813899496375 -1.28077752135285,42.5812709412336 -1.2807734855038,42.5812320356426 -1.28077136647827,42.5812114256411 -1.28086175413401,42.5811865112296 -1.28094953483984,42.5811623331066 -1.28102079910929,42.5811478106847 -1.28115099630658,42.5811213159857 -1.28134152368256,42.5810974258839 -1.28139567346221,42.5811021344166 -1.28142058516266,42.5811043192618 -1.28149340432089,42.5811066614573 -1.28151606534351,42.5811035673913 -1.28156004745497,42.5810975926837 -1.28157486616431,42.5810930617963 -1.281586375425,42.5810895661605 -1.28159106133674,42.5810655729735 -1.28159103379878,42.5810655412103 -1.28157243787186,42.5810243257014 -1.28152594666271,42.580959046808 -1.28152054027844,42.5809506498478 -1.28149500220611,42.5809109243362 -1.28149190090176,42.5808800780925 -1.28151988834972,42.5808593793264 -1.28153216489233,42.5808503208491 -1.28154192695744,42.5808383114598 -1.28155543824615,42.5808217383666 -1.28156315157351,42.5807862830498 -1.28156315640761,42.5807862534268 -1.28154302347359,42.5807255979875 -1.2815430122119,42.5807255699838 -1.28145904383936,42.5806481466269 -1.28142990063503,42.5806213347141 -1.28129666140121,42.5804850308378 -1.28117115271229,42.5803876553549 -1.28117111548663,42.58038763446 -1.28112065549168,42.5803603925212 -1.28108061565328,42.580338879085 -1.28107371013603,42.5803351594573 -1.28102862004392,42.5803108605774 -1.28086747383556,42.5802489346832 -1.28086743063806,42.5802489123642 -1.28085902465705,42.5802479315145 -1.28072312040345,42.5802320734728 -1.28060388505002,42.5802181455344 -1.28067231450289,42.58021255971 -1.28064527180713,42.5801821872467 -1.2804178387114,42.5801996807694 -1.28030840555073,42.5802178511403 -1.28022569502925,42.5802315793522 -1.28009399148825,42.5802738280035 -1.2799910615272,42.5803234013389 -1.27993347462608,42.5803401868615 -1.27992895246991,42.5803388585725 -1.27992654602537,42.5803306459833 -1.27992720903397,42.5803061163422 -1.27992392500407,42.5802526825445 -1.27992413036072,42.580226183156 -1.27991592447702,42.580159428837 -1.27990668091367,42.5801113628104 -1.27989978093056,42.5800742477409 -1.27989331932102,42.5800402448723 -1.27989110566026,42.5800250199825 -1.27988302801968,42.5799726850523 -1.27988076071475,42.5799399159999 -1.27987606433413,42.5798993216023 -1.27987507107851,42.5798587825251 -1.27987563853342,42.5798381412492 -1.27987975907726,42.5797844316868 -1.27988992381185,42.5797604234002 -1.27990206751389,42.5797411265815 -1.27990589804387,42.5797170227411 -1.27991422378877,42.579702729919 -1.2799193987761,42.5796975490643 -1.27994411952459,42.579695037846 -1.28001193834539,42.5796881412157 -1.28004953788888,42.5796843199058 -1.28006379215427,42.5797611249655 -1.28034891015134,42.5797322291908 -1.28033240618301,42.5796432963546 -1.28032802077101,42.5796197448817 -1.28031161319459,42.5795313082542 -1.2800079100025,42.5795620857663 -1.27999149057281,42.5794998374195 -1.28007456615576,42.5794503721338 -1.28014441091141,42.5793864035393 -1.28030511496476,42.5794578523422 -1.28035151046503,42.5794767127615 -1.28055863542416,42.5795725495959 -1.28058983316632,42.5795869854949 -1.28063249456789,42.5796019963816 -1.28066408888332,42.579619918652 -1.28093281283945,42.5798504282818 -1.28094580084961,42.5798605723139 -1.28095452050089,42.5798682710623 -1.28096858498853,42.5798737141744 -1.28096872321144,42.5798737676919 -1.28097715447357,42.5798749286165 -1.28098763216586,42.5798764121832 -1.28100717375035,42.5798752299188 -1.28102767889664,42.5798719147836 -1.28104604917169,42.5798677712796 -1.28105116951024,42.5798665215368 -1.28136276760972,42.5800697510248 -1.28136281874702,42.5800697843772 -1.2814849904857,42.5801494112711 -1.28156348292701,42.5802006063039 -1.2814603028013,42.5801759847731 -1.28148660816178,42.5802252610941 -1.28168958005204,42.5803238408724 -1.28183987119994,42.5804372556288 -1.28190312754954,42.5804676676298 -1.28196424364187,42.58044585347 -1.28195309168193,42.5804236725412 -1.28206541254389,42.5804356578252 -1.28254178699184,42.5805500812421 -1.28253475573675,42.5805877036271 -1.28253303274568,42.5807677567502 -1.28257605270565,42.5805969230486 -1.2825762114605,42.5806054435921 -1.28257621211069,42.5806054761552 -1.28257654975594,42.5806223237555 -1.28257655181195,42.5806223604848 -1.2825854291176,42.5806752476954 -1.2825918332222,42.5806971986894 -1.28259465175336,42.5807068686935 -1.28259464847235,42.5807068969401 -1.28256714449838,42.5808324604952 -1.28252559527628,42.5809411800366 -1.28248971170325,42.5810458839829 -1.28243985100513,42.5811645546668 -1.28234097813284,42.5813327771351 -1.28228208895304,42.5814586212176 -1.28223405680727,42.5815512975213 -1.28223246472223,42.5816119959794 -1.2822359874332,42.5816592393171 -1.28223714502426,42.5816749112211 -1.28195512790567,42.5817227690611 -1.28165299978045,42.5817614546941 -1.28170698562901,42.5817254739122 -1.28167370774515,42.5816919643695 -1.28157456323429,42.5817842436629 -1.28147789121742,42.5819203732817 -1.28147786675837,42.5819204118357 -1.28144600546133,42.5819984061272 -1.28141898368766,42.5820645512456 -1.2814189753113,42.5820645767787 -1.28139417594437,42.5821710004532 -1.28138333608937,42.5822602700966 -1.28137093776854,42.5823346189725 -1.28130371918047,42.5823357882678 -1.28124076100943,42.5823368471716 -1.28121390027579,42.5823306865235 -1.28117571873147,42.5823218795178 -1.28115864728552,42.5822784130889 -1.28115862789403,42.5822783742882 -1.28115006041759,42.5822616797792 -1.28112458828088,42.5822119902461 -1.28111800132377,42.5821635540179 -1.2811137066822,42.5821318724348 -1.28108274792975,42.5820700858829 -1.28108272704518,42.5820700513576 -1.28103934681751,42.582048274405 -1.28096806627004,42.5820493641543 -1.28093471903233,42.5820662166856 -1.28091557323883,42.5820758756292 -1.28090460645783,42.5820410519026</coordinates></LinearRing></outerBoundaryIs></Polygon></MultiGeometry>
  </Placemark>
  <Placemark>
	<Style><LineStyle><color>ff0000ff</color></LineStyle><PolyStyle><fill>0</fill></PolyStyle></Style>
	<ExtendedData><SchemaData schemaUrl="#propuesta_v1">
		<SimpleData name="fid">4</SimpleData>
		<SimpleData name="id">4</SimpleData>
		<SimpleData name="observaciones">Con el objetivo de mejorar la defensa de bienes y personas. Se propone una reducción de combustible mediante desbroce, si es posible transición a modelos de pasto.</SimpleData>
		<SimpleData name="tipo">Defensivo</SimpleData>
		<SimpleData name="vegetacion">Forestal no arbolado</SimpleData>
	</SchemaData></ExtendedData>
      <MultiGeometry><Polygon><outerBoundaryIs><LinearRing><coordinates>-1.27810324309263,42.5984193204891 -1.27814526534809,42.5984593918222 -1.27816282933876,42.5984761642518 -1.27819413259385,42.5985041517679 -1.2782082877336,42.5985168063705 -1.27818129186811,42.5985902161444 -1.27812809907392,42.5986717838659 -1.27802249688595,42.5987742804772 -1.27793212331658,42.5988549247599 -1.27777532888992,42.59895200429 -1.27761708350603,42.5990548170596 -1.27753681708096,42.5991055100392 -1.27746342723971,42.5991518334911 -1.27734189827868,42.5992201367763 -1.27717574923258,42.5993080770226 -1.27717570363937,42.5993081016394 -1.27704037574855,42.5993855972229 -1.27699162322804,42.5994075136407 -1.27693719204885,42.5994319650937 -1.27672780455142,42.5995350658617 -1.27655085585942,42.59962768925 -1.27643711419736,42.5996993645793 -1.27634355304511,42.5997731639087 -1.2762776429465,42.5998285006712 -1.27625693238249,42.5998465292324 -1.27624851587808,42.5998538500433 -1.27620608441044,42.599873021082 -1.27630799942063,42.5996971702023 -1.27636282293797,42.5996000767447 -1.2764148552814,42.5995254140996 -1.27646028352291,42.5994538619789 -1.27653513979003,42.5993394121134 -1.27663551128089,42.5991875466166 -1.27665410641132,42.5992101823336 -1.27668204316116,42.5992441947188 -1.27676971527123,42.5993226617331 -1.27682904583269,42.599362379519 -1.27685538215444,42.5993668377022 -1.27689722813646,42.5993654020123 -1.27695741010365,42.5993467120047 -1.27702679795187,42.5993177172321 -1.27709384739238,42.5992909907064 -1.27711153374245,42.599283956242 -1.27719938273064,42.5992467983034 -1.27732570644115,42.5991899284826 -1.27741951936284,42.5991344064851 -1.27748866279913,42.5990881984141 -1.27759920208027,42.5990062351687 -1.27761335463393,42.5989908368539 -1.27764047816458,42.5989613328296 -1.27768795051148,42.5989163988071 -1.27768797687977,42.5989163737582 -1.27771184910891,42.5988936874867 -1.27774615170904,42.598861088089 -1.2777461720921,42.5988610631397 -1.27781940535954,42.5987701995263 -1.27787556789298,42.5986843966324 -1.27796084794576,42.5985541084518 -1.27799116526205,42.5984978211953 -1.27799118658879,42.5984977819042 -1.27801543623567,42.5984553119581 -1.27802588882852,42.5984231907311 -1.27803029959251,42.5984025568275 -1.27803436264397,42.5983900655243 -1.27804073867352,42.5983704745114 -1.27810324309263,42.5984193204891</coordinates></LinearRing></outerBoundaryIs></Polygon><Polygon><outerBoundaryIs><LinearRing><coordinates>-1.27624208751676,42.6002749741906 -1.27628881877917,42.6002998555678 -1.27628885447927,42.600299875573 -1.27633914910942,42.600308843458 -1.27638823854629,42.6003176179904 -1.27642694196691,42.6003220536018 -1.27649211254914,42.6003295630678 -1.27657747485025,42.6003450669677 -1.27664587902659,42.6003664122969 -1.27668232954035,42.6003791245797 -1.27673299797895,42.6003968261419 -1.27682926403274,42.6004202844159 -1.27673565512253,42.600490659394 -1.2767158592273,42.6005194038463 -1.2767068968524,42.6005469335897 -1.27670572747353,42.6005778583836 -1.276729555854,42.6006292323694 -1.27679572826307,42.6007227131065 -1.27688222157855,42.600832087786 -1.27695880904146,42.6008900187532 -1.27701939855337,42.6009056810048 -1.27707988700213,42.6009121831778 -1.27716197310119,42.6009116978535 -1.27719924649709,42.6009206335155 -1.27723049667672,42.6009433377807 -1.27726503571828,42.6009820491116 -1.27727482351841,42.6010232067873 -1.27727686957107,42.6010644100786 -1.27727435438227,42.60111365867 -1.27724528593865,42.6011435965619 -1.27721132335642,42.6011529646798 -1.277140126745,42.6011568287495 -1.27707375507538,42.6011766958207 -1.27701984398795,42.6012022076104 -1.27696302824092,42.6012437682743 -1.27690502111476,42.6013139570107 -1.27687788978269,42.6013770908117 -1.27687902506947,42.6014721144904 -1.27676097098466,42.6013136810611 -1.27668855209654,42.6011438582774 -1.2761866621449,42.6002413611071 -1.27618398019976,42.6002077749696 -1.276204490144,42.60023856095 -1.27624206062581,42.6002749498692 -1.27624208751676,42.6002749741906</coordinates></LinearRing></outerBoundaryIs></Polygon></MultiGeometry>
  </Placemark>
  <Placemark>
	<Style><LineStyle><color>ff0000ff</color></LineStyle><PolyStyle><fill>0</fill></PolyStyle></Style>
	<ExtendedData><SchemaData schemaUrl="#propuesta_v1">
		<SimpleData name="fid">5</SimpleData>
		<SimpleData name="id">5</SimpleData>
		<SimpleData name="observaciones">El fuego cuando llegue a esta zona cambiará de comportamiento tanto en incendios con condiciones de viento norte como incendios con condiciones de viento sur. Deja de haber alineación de factores (Campbell) y puede constituir una zona actuación para los equipos de extinción. Se propone la ejecución de una faja perimetral de 60 metros de ancho con reducción de FCC y reducción de carga de combustible con un desbrocce inicial y un mantenimiento posterior usando pastoreo.</SimpleData>
		<SimpleData name="tipo">Defensivo</SimpleData>
		<SimpleData name="vegetacion">Masa de Quejigo</SimpleData>
	</SchemaData></ExtendedData>
      <MultiGeometry><Polygon><outerBoundaryIs><LinearRing><coordinates>-1.34935974502357,42.6233131741241 -1.34864030821996,42.6226057659382 -1.34751988298956,42.6224198152752 -1.34670016574216,42.6218449937963 -1.34536084105863,42.6214726662444 -1.34387674144607,42.621084825227 -1.34247127721766,42.6204702252098 -1.34121975964591,42.6197550691472 -1.34086710575678,42.6189099411792 -1.33910578165248,42.6173473557688 -1.33871655955031,42.6168388680613 -1.33874709816215,42.6168191404179 -1.33877986666804,42.6167625209632 -1.33880488946096,42.6167193532541 -1.33881630504906,42.6166996597953 -1.33881626361176,42.6166996330546 -1.33875441723719,42.6166419240033 -1.33909979395132,42.6164841868491 -1.3391389412852,42.6165215745172 -1.33931759318005,42.6166625019782 -1.33946648680228,42.616754172344 -1.33958384351196,42.6168107887506 -1.33961244340549,42.6168203566936 -1.33967150111071,42.6168217779539 -1.34148798596281,42.6183112589573 -1.34222176444205,42.6193853116153 -1.34368437160425,42.6203537282711 -1.34540502441379,42.6207181800812 -1.34786593715006,42.6214596779973 -1.34912741976944,42.6222598007666 -1.34977898326144,42.6228676736017 -1.34977742552563,42.6228964812294 -1.34977729820999,42.6228987958245 -1.34977729614144,42.6228988392855 -1.34977780113897,42.622939265641 -1.34978103841471,42.6229796443653 -1.3497861805766,42.6230142181892 -1.34978702297357,42.6230198855801 -1.34978703130155,42.6230199147623 -1.34979900369546,42.623059393821 -1.34981359293504,42.6230982887685 -1.34981360758592,42.6230983269836 -1.34983081478013,42.6231365686569 -1.34985054494971,42.6231740479329 -1.34985887391979,42.6231877895785 -1.34935974502357,42.6233131741241</coordinates></LinearRing></outerBoundaryIs></Polygon></MultiGeometry>
  </Placemark>
  <Placemark>
	<Style><LineStyle><color>ff0000ff</color></LineStyle><PolyStyle><fill>0</fill></PolyStyle></Style>
	<ExtendedData><SchemaData schemaUrl="#propuesta_v1">
		<SimpleData name="fid">6</SimpleData>
		<SimpleData name="id">6</SimpleData>
		<SimpleData name="observaciones">El fuego si llega a este punto tiene potencial de dividirse y quemar dos cuencas diferentes. Se propne reducir la carga de combustible mediante desbroces y apeos y mantener la FCC en pies superiores a 4 metros. El objetivo es reducir el paveseo y la virulencia del incendio cuando llegue a este punto. Analizar zona SW por si se considera oportuno llevar a evolución natural.</SimpleData>
		<SimpleData name="tipo">Punto crítico, nudo de barranco</SimpleData>
		<SimpleData name="vegetacion">Masa de quejigo</SimpleData>
	</SchemaData></ExtendedData>
      <MultiGeometry><Polygon><outerBoundaryIs><LinearRing><coordinates>-1.37615933791545,42.6154669518304 -1.37448329520605,42.6152465774624 -1.37460355536661,42.6157397862491 -1.37458031743721,42.6166330966843 -1.37431229632507,42.6163943409203 -1.37429414396624,42.6163519541235 -1.37423798353525,42.6163703951498 -1.37418623200616,42.616382818413 -1.37418525968478,42.6163830518243 -1.37418086545215,42.6163842142175 -1.37411744756952,42.6164009899364 -1.37405048305409,42.6164216979861 -1.37405048436216,42.6164216910225 -1.37405047448279,42.6164216940766 -1.37404586443577,42.6164461692353 -1.3740460073401,42.6164464791641 -1.3739918535763,42.616463889163 -1.37374646947015,42.6165944514554 -1.3731238172285,42.6163443264523 -1.37291541560277,42.6159839101676 -1.37311707186899,42.6156740005182 -1.37326057866378,42.615273900624 -1.37341152731064,42.6150526342669 -1.37335907737111,42.6147435834985 -1.37343222426619,42.6144899347563 -1.37377981925367,42.6141508187764 -1.37393983567797,42.6140458536756 -1.37418997808619,42.6139645086557 -1.37475737336719,42.6142451212838 -1.37492635354744,42.6144932699793 -1.3753011738744,42.6147354019293 -1.3758141556893,42.6150152374772 -1.37649564171333,42.6150963901424 -1.37615933791545,42.6154669518304</coordinates></LinearRing></outerBoundaryIs></Polygon></MultiGeometry>
  </Placemark>
  <Placemark>
	<Style><LineStyle><color>ff0000ff</color></LineStyle><PolyStyle><fill>0</fill></PolyStyle></Style>
	<ExtendedData><SchemaData schemaUrl="#propuesta_v1">
		<SimpleData name="fid">7</SimpleData>
		<SimpleData name="id">7</SimpleData>
		<SimpleData name="observaciones">El fuego cuando llegue a esta zona cambiará de comportamiento tanto en incendios con condiciones de viento norte como incendios con condiciones de viento sur. Deja de haber alineación de factores (Campbell) y puede constituir una zona actuación para los equipos de extinción. Se propone la ejecución de una faja perimetral de 60 metros de ancho con reducción de FCC y reducción de carga de combustible con un desbrocce inicial y un mantenimiento posterior usando pastoreo.</SimpleData>
		<SimpleData name="tipo">Punto de oportunidad</SimpleData>
		<SimpleData name="vegetacion">Pino laricio</SimpleData>
	</SchemaData></ExtendedData>
      <MultiGeometry><Polygon><outerBoundaryIs><LinearRing><coordinates>-1.39136456942483,42.6206490307711 -1.39034847781034,42.6187581113124 -1.38937137358711,42.6162958006068 -1.38870442422844,42.6149459590744 -1.38637560116144,42.6142340078888 -1.38533252407257,42.6133971589195 -1.38328142549409,42.6122422390035 -1.38074225117095,42.6093824650981 -1.37976512303835,42.6083409598862 -1.37821802979453,42.607353932624 -1.37642982387589,42.6063366578341 -1.3745916797766,42.6053812013942 -1.37235174589536,42.6049919375211 -1.37134434691094,42.6046559071072 -1.37008719031556,42.6046201523478 -1.36886724549714,42.6045491680306 -1.36757194956865,42.6045843338664 -1.36720509728772,42.6045648218277 -1.3672067649675,42.6045574380007 -1.36721012623454,42.604530355219 -1.36720643052955,42.6044933155995 -1.36720449688375,42.6044648565471 -1.36720260649126,42.6044366067687 -1.36719987256949,42.6044129048333 -1.36719637224513,42.6043822528613 -1.36716955015339,42.6042508229353 -1.3671574072524,42.6041699790023 -1.36715740492847,42.604169935789 -1.36715715354443,42.604157929163 -1.3683133556069,42.6039872213221 -1.37332054483681,42.6044873876452 -1.37515421326606,42.6051478992345 -1.37707886492984,42.6060330810643 -1.37827401035051,42.6065951298078 -1.3800722638534,42.6076929456907 -1.38094610085065,42.6085185144469 -1.38131000474245,42.6089481373353 -1.38263903931612,42.6099499167992 -1.38379702995617,42.6107839438233 -1.38487082863595,42.6120680607743 -1.38615869468874,42.6130290048285 -1.38707122273944,42.6135333608886 -1.38773473771468,42.613842072063 -1.3890701377728,42.6143702364988 -1.38950972600839,42.6150354783091 -1.39028544555966,42.6168604734267 -1.39216932368587,42.6206700771437 -1.39213762599678,42.6206872264147 -1.39205271479801,42.6207225159055 -1.39204265995262,42.6207303151174 -1.39136456942483,42.6206490307711</coordinates></LinearRing></outerBoundaryIs></Polygon></MultiGeometry>
  </Placemark>
  <Placemark>
	<Style><LineStyle><color>ff0000ff</color></LineStyle><PolyStyle><fill>0</fill></PolyStyle></Style>
	<ExtendedData><SchemaData schemaUrl="#propuesta_v1">
		<SimpleData name="fid">8</SimpleData>
		<SimpleData name="id">8</SimpleData>
		<SimpleData name="observaciones">Se propone seguir manteniendo baja carga de combustible mediante el uso de ganadería.</SimpleData>
		<SimpleData name="tipo">Punto crítico, cabecera de barranco</SimpleData>
		<SimpleData name="vegetacion">Forestal no arbolado, con quejigos aislados</SimpleData>
	</SchemaData></ExtendedData>
      <MultiGeometry><Polygon><outerBoundaryIs><LinearRing><coordinates>-1.37901744261176,42.6172157606803 -1.37858540355831,42.6201337224698 -1.37708068597642,42.6201416525951 -1.37774179070903,42.6160280693465 -1.37911934281508,42.6163399793905 -1.37901744261176,42.6172157606803</coordinates></LinearRing></outerBoundaryIs></Polygon></MultiGeometry>
  </Placemark>
  <Placemark>
	<Style><LineStyle><color>ff0000ff</color></LineStyle><PolyStyle><fill>0</fill></PolyStyle></Style>
	<ExtendedData><SchemaData schemaUrl="#propuesta_v1">
		<SimpleData name="fid">9</SimpleData>
		<SimpleData name="id">9</SimpleData>
		<SimpleData name="observaciones">Con el objetivo de mejorar la defensa de bienes y personas. Se propone una reducción de la continuidad vertical mediante desbroce y poda y reducción de FCC mediante apeos en aquellas zonas que se encuentren a menos de 10 metros de edificaciones</SimpleData>
		<SimpleData name="tipo">Defensivo</SimpleData>
		<SimpleData name="vegetacion">Pino carrasco</SimpleData>
	</SchemaData></ExtendedData>
      <MultiGeometry><Polygon><outerBoundaryIs><LinearRing><coordinates>-1.30129947957535,42.5413320720886 -1.30128167038714,42.5413281733679 -1.3011787873464,42.54130561896 -1.30104440691645,42.5412639700273 -1.30093763243406,42.5412544046904 -1.30077350889286,42.541266392489 -1.30068068754986,42.5412802637995 -1.30058612320816,42.5412943597205 -1.30042188050138,42.541329246246 -1.30030418249239,42.5413436845305 -1.3002777025269,42.5413745232373 -1.30032412581668,42.5413735134018 -1.30033056790268,42.5413728545855 -1.30035664857482,42.5413701928405 -1.30035776099435,42.5414445882471 -1.30024266911706,42.5414091307283 -1.30016507857253,42.5413805068102 -1.30005347905999,42.5413393192419 -1.29974610543227,42.5412443514351 -1.29952175990755,42.5411533465748 -1.29940225540583,42.5411048416663 -1.29889325007929,42.5408098477183 -1.29889321594119,42.5408098315776 -1.29888508862689,42.5408062234629 -1.29886756015022,42.5408007760768 -1.29884897729707,42.5407977480924 -1.29882997412827,42.5407972555919 -1.29882993395111,42.5407972586224 -1.29882629293275,42.5407976611045 -1.29881117607705,42.5407993267733 -1.29879322018436,42.5408038777692 -1.29879318773673,42.5408038872154 -1.29877663139008,42.5408107612629 -1.29877659377436,42.5408107792604 -1.29876319767191,42.5408190437597 -1.29875373222397,42.5408145732847 -1.29885025876227,42.5407517398864 -1.29888063171219,42.5407685512608 -1.29890147389473,42.5407385664434 -1.29888587059678,42.5407285565933 -1.29892532511727,42.5407028729142 -1.29904852290218,42.5406213208224 -1.29912678073675,42.5406313412205 -1.29911661722702,42.5406378440095 -1.29912255550161,42.5406778923267 -1.2991225825716,42.5406778980789 -1.29912258570014,42.5406779191032 -1.29918287166899,42.540690728375 -1.29926168389921,42.5407093245607 -1.29937887704013,42.5407783980918 -1.29937890676911,42.5407784145402 -1.2994354920146,42.5407987504388 -1.29949473174447,42.5408200400143 -1.299630767085,42.5408411734866 -1.29978407766545,42.5408290976909 -1.29995005708771,42.5407610385218 -1.30008198583757,42.5406939946667 -1.30014157532047,42.5406746181693 -1.30023858797058,42.5406430614876 -1.30032563998768,42.5406267325864 -1.30037032759162,42.5406183749433 -1.30046840702495,42.5406085464817 -1.30053598347106,42.5406017886746 -1.30064867896378,42.5406479745787 -1.30069478915183,42.5407007912739 -1.30066653514035,42.5407704988268 -1.30061624853847,42.5408257412883 -1.3005793176961,42.5408663121302 -1.30046891879564,42.5409563239484 -1.30039740114046,42.5410098182267 -1.30036278220192,42.5411058765191 -1.30035146663197,42.5411893627943 -1.30034964367165,42.5412123079895 -1.30034816660089,42.5412305560198 -1.30037908701293,42.5412363896863 -1.30037912370391,42.5412363795228 -1.30039383782911,42.5412314350004 -1.30045661199367,42.5412103446268 -1.30056832776098,42.5411615350458 -1.3006599654483,42.5411046472143 -1.30073151869737,42.5410419588574 -1.30081067682673,42.5410010504084 -1.30089432652567,42.540987619919 -1.30097316945082,42.5410027838578 -1.3010781068885,42.5410535110831 -1.30112099035737,42.5410738223864 -1.30118767300249,42.5411054540712 -1.30130820896825,42.5411390663431 -1.30131790549421,42.5411407512946 -1.30129947957535,42.5413320720886</coordinates></LinearRing></outerBoundaryIs></Polygon></MultiGeometry>
  </Placemark>
  <Placemark>
	<Style><LineStyle><color>ff0000ff</color></LineStyle><PolyStyle><fill>0</fill></PolyStyle></Style>
	<ExtendedData><SchemaData schemaUrl="#propuesta_v1">
		<SimpleData name="fid">10</SimpleData>
		<SimpleData name="id">10</SimpleData>
		<SimpleData name="observaciones">El fuego cuando llegue a esta zona cambiará de comportamiento tanto en incendios con condiciones de viento norte como incendios con condiciones de viento sur. Deja de haber alineación de factores (Campbell) y puede constituir una zona actuación para los equipos de extinción. Se propone la ejecución de una faja perimetral de 60 metros de ancho con reducción de FCC y reducción de carga de combustible con un desbrocce inicial y un mantenimiento posterior usando pastoreo.</SimpleData>
		<SimpleData name="tipo">Punt de oportunidad</SimpleData>
	</SchemaData></ExtendedData>
      <MultiGeometry><Polygon><outerBoundaryIs><LinearRing><coordinates>-1.31016220284229,42.6184655253683 -1.3099447184102,42.6186139142385 -1.30884035367577,42.6175546207993 -1.30770139096793,42.6168647040566 -1.30654783965166,42.6164110528367 -1.30516270706818,42.6160206665125 -1.30407023756995,42.6157376837045 -1.30329720422237,42.6151804829459 -1.30156233523049,42.6149728530352 -1.30040194041414,42.6147737227679 -1.29952944308894,42.6145545996942 -1.29873675197153,42.6141183545705 -1.29776154875927,42.6137521585942 -1.29705612429957,42.6137295447466 -1.29605576447726,42.6136843475448 -1.29502743970026,42.6131596763256 -1.2943952847595,42.6128591968 -1.29365612330297,42.6125692475213 -1.29308582296005,42.6124091522114 -1.29236971093478,42.6118769816447 -1.29216579237169,42.6115282982814 -1.29148393423505,42.6112452533074 -1.29048668885165,42.6107877079377 -1.2897785698671,42.610564899992 -1.28912806377235,42.6103368843393 -1.28891513252312,42.6100183801054 -1.28863482379228,42.6094623761519 -1.28777556319918,42.6087643122003 -1.28722770482006,42.6083862223125 -1.28656586792827,42.6082732370415 -1.28689512904296,42.6076414510688 -1.28893373699422,42.6087391722391 -1.29114432862768,42.6101547466436 -1.29261065422596,42.6111710957859 -1.29504463930414,42.612529285503 -1.29627695608321,42.6130994384793 -1.29757042428391,42.6132338854641 -1.29954725792526,42.6138999616971 -1.30081757994032,42.6142826488035 -1.30178509770567,42.6146305130981 -1.30240190923435,42.614591145387 -1.30246311579126,42.6147557781584 -1.30228715392971,42.6148865762039 -1.30256403849321,42.6149695107839 -1.3026004875347,42.6148366448833 -1.30298175378572,42.6150060200637 -1.30332379930295,42.6151081099643 -1.30336156351198,42.6149267520047 -1.30428807258595,42.6152739877073 -1.30566907380466,42.6158159212884 -1.30679339403655,42.6161357431808 -1.30801243301069,42.6165964232727 -1.30919800639898,42.6170808520297 -1.31047537360637,42.6181184385173 -1.31059963911591,42.6183810196433 -1.31016220284229,42.6184655253683</coordinates></LinearRing></outerBoundaryIs></Polygon></MultiGeometry>
  </Placemark>
</Folder>
</Document></kml>
